     2              NAVIGATION DATA                         RINEX VERSION / TYPE
CCRINEXN V1.6.0 UX  CDDIS               27-SEP-12 15:33     PGM / RUN BY / DATE 
IGS BROADCAST EPHEMERIS FILE                                COMMENT             
    0.2049D-07  0.1490D-07 -0.1192D-06 -0.1192D-06          ION ALPHA           
    0.1249D+06  0.1638D+05 -0.2621D+06  0.2621D+06          ION BETA            
    0.931322574615D-09 0.177635683940D-14   503808      683 DELTA-UTC: A0,A1,T,W
    16                                                      LEAP SECONDS        
                                                            END OF HEADER       
14 12  9 26 10  0  0.0 0.213520601392D-03 0.909494701773D-12 0.000000000000D+00
    0.950000000000D+02-0.322812500000D+02 0.427089208443D-08-0.793742370167D+00
   -0.152178108692D-05 0.683481874876D-02 0.884942710400D-05 0.515364647675D+04
    0.295200000000D+06-0.521540641785D-07-0.119956183893D+01 0.156462192535D-06
    0.976872077706D+00 0.220468750000D+03-0.204440267657D+01-0.799461830070D-08
   -0.347871620399D-09 0.100000000000D+01 0.170700000000D+04 0.000000000000D+00
    0.200000000000D+01 0.000000000000D+00-0.931322574616D-08 0.950000000000D+02
    0.295200000000D+06 0.000000000000D+00 0.499063314615-269 0.664593648549-315
15 12  9 26 10  0  0.0-0.960766337812D-04-0.795807864051D-12 0.000000000000D+00
    0.980000000000D+02-0.497812500000D+02 0.504521015325D-08-0.120781378385D+01
   -0.278279185295D-05 0.468120083678D-02 0.802427530289D-05 0.515363251305D+04
    0.295200000000D+06-0.130385160446D-07-0.129142898790D+01-0.152736902237D-06
    0.943585489266D+00 0.213000000000D+03 0.341209315823D-01-0.833820446254D-08
   -0.359657838335D-09 0.000000000000D+00 0.170700000000D+04 0.000000000000D+00
    0.200000000000D+01 0.000000000000D+00-0.102445483208D-07 0.980000000000D+02
    0.288000000000D+06 0.400000000000D+01 0.000000000000D+00 0.000000000000D+00
16 12  9 26 10  0  0.0-0.246790703386D-03-0.795807864051D-12 0.000000000000D+00
    0.440000000000D+02 0.128750000000D+02 0.447447209401D-08 0.375557653632D+00
    0.640749931335D-06 0.651514925994D-02 0.337511301041D-05 0.515374785423D+04
    0.295200000000D+06 0.931322574615D-07 0.871810229824D+00-0.149011611938D-07
    0.981911125363D+00 0.321593750000D+03 0.308593045225D-01-0.830713173967D-08
    0.167864135072D-10 0.100000000000D+01 0.170700000000D+04 0.000000000000D+00
    0.200000000000D+01 0.000000000000D+00-0.977888703346D-08 0.440000000000D+02
    0.290748000000D+06 0.400000000000D+01 0.000000000000D+00 0.000000000000D+00
17 12  9 26 10  0  0.0 0.931853428483D-04-0.329691829393D-11 0.000000000000D+00
    0.670000000000D+02-0.101343750000D+03 0.459912014324D-08-0.534166952369D+00
   -0.529177486896D-05 0.756645342335D-02 0.830553472042D-05 0.515374307632D+04
    0.295200000000D+06 0.465661287308D-07 0.191155665697D+01 0.128522515297D-06
    0.963482329386D+00 0.221437500000D+03-0.229810289248D+01-0.831463205208D-08
   -0.477877048354D-09 0.100000000000D+01 0.170700000000D+04 0.000000000000D+00
    0.200000000000D+01 0.000000000000D+00-0.107102096081D-07 0.670000000000D+02
    0.288018000000D+06 0.400000000000D+01 0.000000000000D+00 0.000000000000D+00
18 12  9 26 10  0  0.0 0.216784421354D-03 0.181898940355D-11 0.000000000000D+00
    0.300000000000D+02 0.299375000000D+02 0.565559272099D-08 0.921447446945D+00
    0.152923166752D-05 0.136383086210D-01 0.477768480778D-05 0.515372687149D+04
    0.295200000000D+06-0.165775418282D-06-0.230870656013D+01 0.782310962677D-07
    0.928828778590D+00 0.270812500000D+03-0.214273632575D+01-0.894787271481D-08
    0.103932900651D-09 0.000000000000D+00 0.170700000000D+04 0.000000000000D+00
    0.200000000000D+01 0.000000000000D+00-0.107102096081D-07 0.300000000000D+02
    0.290130000000D+06 0.400000000000D+01 0.000000000000D+00 0.000000000000D+00
19 12  9 26 10  0  0.0-0.307361595333D-03-0.352429196937D-11 0.000000000000D+00
    0.810000000000D+02-0.896562500000D+02 0.444339937113D-08-0.135720941825D+01
   -0.468641519546D-05 0.859295798000D-02 0.851601362228D-05 0.515362614250D+04
    0.295200000000D+06 0.465661287308D-07 0.196425262367D+01-0.143423676491D-06
    0.960843842523D+00 0.215593750000D+03 0.255107727427D+00-0.805712132573D-08
   -0.322156276245D-09 0.100000000000D+01 0.170700000000D+04 0.000000000000D+00
    0.200000000000D+01 0.000000000000D+00-0.149011611938D-07 0.810000000000D+02
    0.288018000000D+06 0.400000000000D+01 0.000000000000D+00 0.000000000000D+00
22 12  9 26 10  0  0.0 0.148451887071D-03 0.682121026330D-12 0.000000000000D+00
    0.890000000000D+02 0.296875000000D+02 0.567916513145D-08 0.165128989188D+00
    0.153854489327D-05 0.628711737227D-02 0.466406345367D-05 0.515366983795D+04
    0.295200000000D+06-0.819563865662D-07-0.230558373913D+01 0.763684511185D-07
    0.926558695460D+00 0.272593750000D+03-0.200600289540D+01-0.885108296885D-08
    0.203579908492D-09 0.100000000000D+01 0.170700000000D+04 0.000000000000D+00
    0.280000000000D+01 0.000000000000D+00-0.172294676304D-07 0.890000000000D+02
    0.288480000000D+06 0.000000000000D+00 0.000000000000D+00 0.000000000000D+00
23 12  9 26 10  0  0.0 0.160606112331D-03-0.397903932026D-11 0.000000000000D+00
    0.640000000000D+02-0.392187500000D+02 0.466376569313D-08-0.174867064596D+01
   -0.238604843616D-05 0.824054970872D-02 0.872835516930D-05 0.515358139420D+04
    0.295200000000D+06 0.113621354103D-06-0.125388615927D+01-0.968575477600D-07
    0.958410012047D+00 0.209437500000D+03-0.292820744049D+01-0.813569602725D-08
   -0.286440502825D-09 0.100000000000D+01 0.170700000000D+04 0.000000000000D+00
    0.200000000000D+01 0.000000000000D+00-0.200234353542D-07 0.640000000000D+02
    0.288018000000D+06 0.400000000000D+01 0.000000000000D+00 0.000000000000D+00
25 12  9 26 10  0  0.0 0.441768206656D-04 0.136424205266D-11 0.000000000000D+00
    0.480000000000D+02 0.303125000000D+02 0.472698261208D-08 0.142310895500D+01
    0.157207250595D-05 0.181443942711D-02 0.332668423653D-05 0.515365237427D+04
    0.295200000000D+06-0.279396772385D-07 0.818097388766D+00 0.108033418655D-06
    0.970010114163D+00 0.318875000000D+03 0.774835515969D+00-0.839606401548D-08
    0.160363822654D-09 0.000000000000D+00 0.170700000000D+04 0.000000000000D+00
    0.200000000000D+01 0.000000000000D+00 0.512227416039D-08 0.480000000000D+02
    0.293820000000D+06 0.400000000000D+01 0.000000000000D+00 0.000000000000D+00
26 12  9 26 10  0  0.0-0.267555005848D-03 0.131876731757D-10 0.000000000000D+00
    0.810000000000D+02-0.389687500000D+02 0.405374028313D-08-0.188479086787D+01
   -0.195764005184D-05 0.207804162055D-01 0.915862619877D-05 0.515366007042D+04
    0.295200000000D+06 0.372529029846D-06-0.117849497156D+01-0.298023223877D-07
    0.981613709728D+00 0.205625000000D+03 0.120661654047D+01-0.757281543816D-08
   -0.323584907182D-09 0.000000000000D+00 0.170700000000D+04 0.000000000000D+00
    0.200000000000D+01 0.000000000000D+00-0.605359673500D-08 0.810000000000D+02
    0.288000000000D+06 0.400000000000D+01 0.000000000000D+00 0.000000000000D+00
27 12  9 26 10  0  0.0 0.435492023826D-03 0.420641299570D-11 0.000000000000D+00
    0.930000000000D+02 0.558125000000D+02 0.402945355720D-08-0.107586743253D+01
    0.279955565929D-05 0.217877066461D-01 0.117383897304D-04 0.515368020058D+04
    0.295200000000D+06-0.316649675369D-06-0.255028606965D+00-0.149011611938D-06
    0.982244556577D+00 0.172937500000D+03-0.103081731647D+01-0.806140721854D-08
    0.361800784741D-09 0.000000000000D+00 0.170700000000D+04 0.000000000000D+00
    0.280000000000D+01 0.000000000000D+00-0.419095158577D-08 0.930000000000D+02
    0.288000000000D+06 0.400000000000D+01 0.000000000000D+00 0.000000000000D+00
28 12  9 26 10  0  0.0 0.189137179404D-03 0.363797880709D-11 0.000000000000D+00
    0.890000000000D+02 0.212500000000D+02 0.464947938377D-08 0.116265079342D+00
    0.124797224998D-05 0.180932549993D-01 0.355020165443D-05 0.515362723923D+04
    0.295200000000D+06-0.238418579102D-06 0.878379924278D+00 0.912696123123D-07
    0.980293442254D+00 0.323593750000D+03-0.182025797749D+01-0.869464788127D-08
    0.257153568621D-10 0.000000000000D+00 0.170700000000D+04 0.000000000000D+00
    0.280000000000D+01 0.000000000000D+00-0.107102096081D-07 0.890000000000D+02
    0.288000000000D+06 0.400000000000D+01 0.000000000000D+00 0.000000000000D+00
29 12  9 26 10  0  0.0 0.359606929123D-03 0.397903932026D-11 0.000000000000D+00
    0.240000000000D+02-0.917187500000D+02 0.445268547222D-08 0.226564439467D+01
   -0.478699803352D-05 0.181139598135D-02 0.772997736931D-05 0.515378271294D+04
    0.295200000000D+06-0.111758708954D-07 0.192019567391D+01 0.409781932831D-07
    0.964061492802D+00 0.231625000000D+03-0.106990746477D+01-0.804319217410D-08
   -0.387516141603D-09 0.000000000000D+00 0.170700000000D+04 0.000000000000D+00
    0.200000000000D+01 0.000000000000D+00-0.977888703346D-08 0.240000000000D+02
    0.288000000000D+06 0.400000000000D+01 0.000000000000D+00 0.000000000000D+00
30 12  9 26 10  0  0.0-0.393955968320D-03 0.177351466846D-10 0.000000000000D+00
    0.141000000000D+03 0.347187500000D+02 0.498449333844D-08-0.670992201313D+00
    0.198744237423D-05 0.111429961398D-01 0.385567545891D-05 0.515371256065D+04
    0.295200000000D+06-0.111758708954D-06 0.726092451934D+00-0.149011611938D-07
    0.961243545389D+00 0.305250000000D+03 0.161014786784D+01-0.868000441417D-08
    0.177864551630D-09 0.100000000000D+01 0.170700000000D+04 0.000000000000D+00
    0.160000000000D+02 0.000000000000D+00-0.419095158577D-08 0.141000000000D+03
    0.288018000000D+06 0.400000000000D+01 0.000000000000D+00 0.000000000000D+00
